{
    "links": {
        "self": "http://www.neowsapp.com/rest/v1/neo/3989151?api_key=iIulBulltgU6a56xZRHN4H3l9WmuAYTsLGpBGhQ2"
    },
    "id": "3989151",
    "neo_reference_id": "3989151",
    "name": "(2020 BM6)",
    "designation": "2020 BM6",
    "nasa_jpl_url": "http://ssd.jpl.nasa.gov/sbdb.cgi?sstr=3989151",
    "absolute_magnitude_h": 23.352,
    "estimated_diameter": {
        "kilometers": {
            "estimated_diameter_min": 0.0567747168,
            "estimated_diameter_max": 0.1269521262
        },
        "meters": {
            "estimated_diameter_min": 56.7747168038,
            "estimated_diameter_max": 126.9521261767
        },
        "miles": {
            "estimated_diameter_min": 0.0352781626,
            "estimated_diameter_max": 0.0788843696
        },
        "feet": {
            "estimated_diameter_min": 186.2687618787,
            "estimated_diameter_max": 416.5096136456
        }
    },
    "is_potentially_hazardous_asteroid": false,
    "close_approach_data": [
        {
            "close_approach_date": "2019-12-23",
            "close_approach_date_full": "2019-Dec-23 21:52",
            "epoch_date_close_approach": 1577137920000,
            "relative_velocity": {
                "kilometers_per_second": "11.1822098933",
                "kilometers_per_hour": "40255.95561575",
                "miles_per_hour": "25013.485310242"
            },
            "miss_distance": {
                "astronomical": "0.0756168094",
                "lunar": "29.4149388566",
                "kilometers": "11312113.622435978",
                "miles": "7029021.4649253764"
            },
            "orbiting_body": "Earth"
        },
        {
            "close_approach_date": "2108-09-08",
            "close_approach_date_full": "2108-Sep-08 04:36",
            "epoch_date_close_approach": 4376522160000,
            "relative_velocity": {
                "kilometers_per_second": "23.3746372737",
                "kilometers_per_hour": "84148.6941852854",
                "miles_per_hour": "52286.7261175181"
            },
            "miss_distance": {
                "astronomical": "0.3265919964",
                "lunar": "127.0442865996",
                "kilometers": "48857467.020487668",
                "miles": "30358622.2585110984"
            },
            "orbiting_body": "Earth"
        }
    ],
    "orbital_data": {
        "orbit_id": "4",
        "orbit_determination_date": "2020-05-12 06:41:40",
        "first_observation_date": "2020-01-18",
        "last_observation_date": "2020-02-15",
        "data_arc_in_days": 28,
        "observations_used": 31,
        "orbit_uncertainty": "8",
        "minimum_orbit_intersection": ".00272395",
        "jupiter_tisserand_invariant": "3.150",
        "epoch_osculation": "2458871.5",
        "eccentricity": ".6511409699975966",
        "semi_major_axis": "2.473048095563301",
        "inclination": ".5243615565558855",
        "ascending_node_longitude": "207.2461017405121",
        "orbital_period": "1420.519731835952",
        "perihelion_distance": ".862745159767504",
        "perihelion_argument": "212.5555905604343",
        "aphelion_distance": "4.083351031359098",
        "perihelion_time": "2458818.326384193820",
        "mean_anomaly": "13.47570277357855",
        "mean_motion": ".2534283698648224",
        "equinox": "J2000",
        "orbit_class": {
            "orbit_class_type": "APO",
            "orbit_class_description": "Near-Earth asteroid orbits which cross the Earth’s orbit similar to that of 1862 Apollo",
            "orbit_class_range": "a (semi-major axis) > 1.0 AU; q (perihelion) < 1.017 AU"
        }
    },
    "is_sentry_object": false
}